STARLINK-2022           
1 47643U 21012Z   23182.08835522  .00001355  00000+0  10979-3 0  9991
2 47643  53.0548 142.6904 0001286  95.7886 264.3249 15.06409185131641
